[{"OBJECT_NAME":"STARLINK-4426","OBJECT_ID":"2022-099V","EPOCH":"2026-03-09T20:59:05.066016","MEAN_MOTION":15.05654177,"ECCENTRICITY":5.881e-5,"INCLINATION":97.6033,"RA_OF_ASC_NODE":191.3741,"ARG_OF_PERICENTER":182.7659,"MEAN_ANOMALY":177.3565,"EPHEMERIS_TYPE":0,"CLASSIFICATION_TYPE":"U","NORAD_CAT_ID":53484,"ELEMENT_SET_NO":999,"REV_AT_EPOCH":19607,"BSTAR":0.00015015842,"MEAN_MOTION_DOT":2.107e-5,"MEAN_MOTION_DDOT":0},{"OBJECT_NAME":"NTS (CANX-6)","OBJECT_ID":"2008-021B","EPOCH":"2026-03-09T21:01:43.854528","MEAN_MOTION":15.02479058,"ECCENTRICITY":0.00123192,"INCLINATION":97.9039,"RA_OF_ASC_NODE":46.2456,"ARG_OF_PERICENTER":105.3107,"MEAN_ANOMALY":254.9479,"EPHEMERIS_TYPE":0,"CLASSIFICATION_TYPE":"U","NORAD_CAT_ID":32784,"ELEMENT_SET_NO":999,"REV_AT_EPOCH":96921,"BSTAR":0.00045679857,"MEAN_MOTION_DOT":6.01e-5,"MEAN_MOTION_DDOT":0}]
